0 DELTA 1 DEB
1 37643U 78026JE  13281.22578997  .00000452  00000-0  21103-3 0  2028
2 37643 098.5182 268.1485 0046512 019.5790 340.7192 14.24433028583262
0 DELTA 1 DEB
1 37643U 78026JE  13286.77497067  .00000491  00000-0  22805-3 0  2046
2 37643 098.5170 273.5270 0046444 003.3618 356.7905 14.24439549584056
0 DELTA 1 DEB
1 37643U 78026JE  13291.20024769  .00000558  00000-0  25643-3 0  2053
2 37643 098.5169 277.8168 0046882 350.1855 009.8576 14.24445830584688
0 DELTA 1 DEB
1 37643U 78026JE  13293.16702347  .00000611  00000-0  27937-3 0  2064
2 37643 098.5180 279.7256 0046020 345.2970 014.6882 14.24449480584967
0 DELTA 1 DEB
1 37643U 78026JE  13295.20404448  .00000691  00000-0  31344-3 0  2078
2 37643 098.5171 281.6996 0045933 339.2812 020.6690 14.24453632585251
